#aV2023  6 23  0  0  0.00000000     288 DD+AD WGS84 FIT  NGA
## 2267 432000.00000000   300.00000000 60118 0.0000000000000
+   32     1  2  3  4  5  6  7  8  9 10 11 12 13 14 15 16 17
+         18 19 20 21 22 23 24 25 26 27 28 29 30 31 32  0  0
+          0  0  0  0  0  0  0  0  0  0  0  0  0  0  0  0  0
+          0  0  0  0  0  0  0  0  0  0  0  0  0  0  0  0  0
+          0  0  0  0  0  0  0  0  0  0  0  0  0  0  0  0  0
++         2  2  2  2  2  2  2  2  2  2  2  2  2  2  2  2  2
++         2  2  2  2  2  2  2  2  2  2  2  2  2  2  2  0  0
++         0  0  0  0  0  0  0  0  0  0  0  0  0  0  0  0  0
++         0  0  0  0  0  0  0  0  0  0  0  0  0  0  0  0  0
++         0  0  0  0  0  0  0  0  0  0  0  0  0  0  0  0  0
%c cc cc ccc ccc cccc cccc cccc cccc ccccc ccccc ccccc ccccc
%c cc cc ccc ccc cccc cccc cccc cccc ccccc ccccc ccccc ccccc
%f  0.0000000  0.000000000  0.00000000000  0.000000000000000
%f  0.0000000  0.000000000  0.00000000000  0.000000000000000
%i    0    0    0    0      0      0      0      0         0
%i    0    0    0    0      0      0      0      0         0
/*      NGA, ST. LOUIS,MO.                                  
/*   EPHEMERIS COMPUTED FROM 2 DAYS OF DATA                 
/*   EPOCHA v8 SMOOTHER                                     
/*   G2139 IERS2010 SATIGS SATAPC                           
*  2023  6 23  2  0  0.00000000
P  1 -15013.445354   -725.125154  21598.993620    176.759269                    
V  1  -7805.118419 -27011.249553  -5901.373905     -0.022368                    
P  2 -17244.181571  -6006.259484  19842.395645   -583.204256                    
V  2  -8217.868510 -22620.062746 -14215.475125      0.036426                    
P  3 -20802.866166   9709.347467  13113.988521   -260.511385                    
V  3   9991.591598 -13751.896612  25877.018067      0.141537                    
P  4 -24657.895765    859.692162  -9972.164007     75.755753                    
V  4 -11660.990263  -5420.980912  28219.290641      0.104515                    
P  5  14716.231153   5601.665246 -21583.037598   -132.152837                    
V  5 -16901.442072  20994.550133  -6013.716462     -0.014687                    
P  6   4690.075069  25682.950324   4653.860610    583.468636                    
V  6  -3573.966315  -5004.749778  31710.739805     -0.023989                    
P  7  -9006.812722  15853.838451 -18676.233109    144.994068                    
V  7  -9292.405539 -23173.008337 -15302.129918     -0.103219                    
P  8 -25961.425410  -6297.949399  -1901.934053   -128.693360                    
V  8   2734.720788  -2069.902035 -31325.140210     -0.018469                    
P  9 -18120.724007   8922.005236 -17341.592829   -129.381638                    
V  9 -21133.189421  -5913.228779  19079.208302      0.089632                    
P 10   7903.670587 -21691.385100  13024.434779    -42.282310                    
V 10  12447.852143 -10762.614434 -26131.908849     -0.015637                    
P 11  12808.876546  20940.284348 -10193.591798   -246.420020                    
V 11   1031.291250  13102.493742  28146.938785     -0.153660                    
P 12  20923.845239  -5548.230434  15058.279093   -391.943268                    
V 12 -12791.379593  15042.543196  22974.487986     -0.047097                    
P 13  21604.647682  13666.500745  -7775.787544    537.656703                    
V 13  -9723.916540  -1282.034292 -29760.151509      0.050863                    
P 14 -11046.202467  21834.133147  10147.585550     99.434242                    
V 14 -11121.680347   7234.180151 -27870.070916      0.122853                    
P 15  26455.465728   3344.719263  -1851.787379     51.370142                    
V 15  -2047.960162   3303.596132 -30840.231815      0.035117                    
P 16 -11444.567216 -10187.891238 -22014.586445   -488.661039                    
V 16  20067.242380 -18356.006595  -1521.630912      0.039882                    
P 17  -1998.720441  15100.905711  22181.820539    719.185691                    
V 17 -26129.506984  -7206.266586   2707.092916      0.010793                    
P 18   6999.868541 -18512.642271 -17634.948251   -318.228235                    
V 18   7856.119807  21052.370285 -19139.116199     -0.148248                    
P 19   7023.461582  16386.775451  19568.560470    334.244557                    
V 19 -24209.606470  -7047.340349  14121.957445      0.051170                    
P 20   8225.353776  14556.665393 -20639.878306    426.536184                    
V 20 -14919.742463  21660.869862   9129.224983     -0.020662                    
P 21 -17766.313455  -9734.863523  18150.660204    152.869266                    
V 21  -7431.129467 -20355.180499 -17898.320496     -0.003379                    
P 22 -10188.430724 -16641.375223  18543.446925    502.073019                    
V 22  21943.787287   5409.149614  17184.642518      0.058368                    
P 23  16571.461029 -20605.455666   1299.540128     35.841411                    
V 23   2982.479118    389.937260 -32104.226318      0.037563                    
P 24  17426.483753   4722.552278  19246.683214   -234.109682                    
V 24   8441.289664  23774.477483 -12812.195127     -0.128897                    
P 25  19797.251014 -16556.777513   5340.430973    451.579322                    
V 25  -2385.976489   7560.639649  30765.839538      0.024612                    
P 26  -2364.610769 -18958.365029 -18428.953300    238.405652                    
V 26  16110.204849 -17059.157274  15922.709773     -0.009253                    
P 27 -19993.701792 -13006.008262 -12359.768711     11.094923                    
V 27  15174.258240   1418.998287 -26184.062276     -0.075286                    
P 28  -4305.295782 -25409.742059   6411.923328     83.600650                    
V 28   5277.240384   6790.370481  30349.259809      0.002173                    
P 29  20178.118232  -5565.690362 -16462.537156   -603.620336                    
V 29  19428.476876   7368.553728  21299.052852     -0.010906                    
P 30  -2122.936810  23354.189808 -12093.897186   -509.243565                    
V 30  -7710.539306 -14048.719673 -25792.694362      0.025380                    
P 31 -10886.864205 -23388.676771  -5447.523497   -218.705524                    
V 31   1231.728861  -7436.080720  30853.738160     -0.007456                    
P 32  -1700.280018 -15755.005814  21522.669269   -506.151149                    
V 32  26388.485839   5111.879102   5682.956157     -0.082443                    
EOF
